#aV2006  1 23  0  0   .00000000      96 DD+AD WGS84 FIT  NGA
## 1359  86400.00000000   900.00000000 53758  .0000000000000
+   29     1  2  3  4  5  6  7  8  9 10 11 13 14 15 16 17 18
+         19 20 21 22 23 24 25 26 27 28 29 30  0  0  0  0  0
+          0  0  0  0  0  0  0  0  0  0  0  0  0  0  0  0  0
+          0  0  0  0  0  0  0  0  0  0  0  0  0  0  0  0  0
+          0  0  0  0  0  0  0  0  0  0  0  0  0  0  0  0  0
++         0  0  0  0  0  0  0  0  0  0  0  0  0  0  0  0  0
++         0  0  0  0  0  0  0  0  0  0  0  0  0  0  0  0  0
++         0  0  0  0  0  0  0  0  0  0  0  0  0  0  0  0  0
++         0  0  0  0  0  0  0  0  0  0  0  0  0  0  0  0  0
++         0  0  0  0  0  0  0  0  0  0  0  0  0  0  0  0  0
%c cc cc ccc ccc cccc cccc cccc cccc ccccc ccccc ccccc ccccc
%c cc cc ccc ccc cccc cccc cccc cccc ccccc ccccc ccccc ccccc
%f  0.0000000  0.000000000  0.00000000000  0.000000000000000
%f  0.0000000  0.000000000  0.00000000000  0.000000000000000
%i    0    0    0    0      0      0      0      0         0
%i    0    0    0    0      0      0      0      0         0
/*      NGA, ST. LOUIS,MO.                                  
/*   EPHEMERIS COMPUTED FROM  3 DAYS OF DATA                
/* CCCCCCCCCCCCCCCCCCCCCCCCCCCCCCCCCCCCCCCCCCCCCCCCCCCCCCCCC
/* CCCCCCCCCCCCCCCCCCCCCCCCCCCCCCCCCCCCCCCCCCCCCCCCCCCCCCCCC
*  2006  1 23 11 45   .00000000                                                 
P  1  13975.430258  -8135.088566 -20861.137861     32.894190                    
V  1    130.200235  26899.387747 -10345.870535       .019840                    
P  2 -23511.211545  11929.518720  -2607.558380    -21.107045                    
V  2    921.867295  -4299.575884 -31433.669316       .012346                    
P  3  12483.585750 -14092.168494  18463.336921     68.918497                    
V  3   4586.086255  23651.746343  15122.616641       .031023                    
P  4 -23542.235367   3468.965915 -12192.618590    127.085573                    
V  4  12143.347309  -9621.871814 -25899.370849       .116983                    
P  5   2702.963246  17433.799463 -20092.433001    484.418903                    
V  5 -23348.469222  -9362.031537 -11208.008702       .133566                    
P  6   7589.405592  23930.361474   8732.323464    252.680629                    
V  6  -2872.045932  11046.019705 -28471.231853       .396034                    
P  7 -15661.005694   -156.556674 -21151.523322    478.493263                    
V  7  -1917.156176 -27641.828219   1441.197779       .094719                    
P  8 -19353.481069  -3378.319553  17910.139569    -54.405140                    
V  8  19484.366994 -12033.151641  18238.401518      -.011370                    
P  9  -9549.100365  19397.523952 -15758.272301      4.723497                    
V  9 -17189.709245   8751.334646  22224.899382       .015333                    
P 10 -15322.925990   7120.856048  20487.966304     77.539431                    
V 10 -22161.905745 -13763.498725 -11439.897594       .005586                    
P 11   7364.725796 -20851.340338 -14599.675024    301.369508                    
V 11  16804.209442  -9011.573919  21677.791879       .028430                    
P 13  -6818.327959 -23367.385751  10623.231263     36.786181                    
V 13   1701.102161 -13529.289238 -28414.309635       .023284                    
P 14  14074.645524   7634.036296 -21129.605400    -20.579090                    
V 14   -420.443233  26919.302850   9369.413349       .006018                    
P 15  18750.313338   4881.887919  18158.251211    554.372611                    
V 15 -20181.799092  11683.400149  17169.398074       .059476                    
P 16  20702.429941  -1639.711555  16687.459171     23.095768                    
V 16  17427.341417  11843.998867 -20469.370370       .016859                    
P 17 -14356.907899  -9480.395320 -20279.366507     34.385575                    
V 17    568.477859 -25691.318970  11544.113127       .089798                    
P 18  17563.340462  18108.854650   8861.375279   -216.529572                    
V 18 -10639.087657  -3772.510716  28821.020492      -.022441                    
P 19   7082.584848 -24135.635447   8578.893664    -23.147457                    
V 19   2211.255269  10876.392170  29142.521142       .007694                    
P 20  -3002.689541 -17493.116357 -19848.918645    -34.531242                    
V 20  22522.329893  10964.874323 -13095.659885       .009813                    
P 21  10886.041516  11631.625961  21341.361893     -1.248362                    
V 21 -23591.491920  13152.287124   4371.746586       .036386                    
P 22  23525.658799  11720.055713  -3656.361922     63.674862                    
V 22   2550.102818   5046.557825  31219.407421       .023693                    
P 23    260.368159 -26457.580270  -1054.236040    153.372587                    
V 23   2772.926237   1189.426988 -31954.597665      -.015524                    
P 24 -14728.742065  -8238.954214 -20327.223271     79.660035                    
V 24  22806.840821 -13108.751793 -10844.044761       .030335                    
P 25  23186.794407  -8700.023954  -9335.123061   -264.004512                    
V 25  -8369.510406   9574.771573 -28390.769048      -.873542                    
P 26  -8597.062255  21062.356391  12826.561721    -21.719284                    
V 26  -1960.784971 -17084.366080  26579.120063      -.079543                    
P 27 -11165.684927 -11138.862274  21990.555360     32.738255                    
V 27  21831.636007 -15043.899345   3196.584153       .016110                    
P 28 -23199.428865 -13314.174056   -156.294726     34.650736                    
V 28    833.567844  -2459.430568  31512.931671      -.006076                    
P 29 -10591.500083  17831.233180  16697.271653    508.819448                    
V 29  -1975.829230 -20727.317328  21437.151641       .134569                    
P 30  12451.677342  18448.105465 -14852.477678     18.712003                    
V 30 -17400.405682  -6349.171701 -22786.093940       .040795                    
EOF
